HELIOS 1B               
1 25977U 99064A   26071.26967842  .00002398  00000+0  26956-3 0  9990
2 25977  98.1687 333.5885 0002441  71.6975 288.4506 14.87711208685643
TERRA                   
1 25994U 99068A   26071.24266375  .00000545  00000+0  12010-3 0  9992
2 25994  97.9589 124.5798 0002853 145.6884 240.8775 14.61017918395455
SL-16 R/B               
1 26070U 00006B   26071.27331317 -.00000168  00000+0 -61085-4 0  9994
2 26070  71.0006  92.4046 0016627 186.4244 173.6669 14.15825399348928
TITAN 4B R/B            
1 26474U 00047B   26071.28058707  .00005260  00000+0  32908-3 0  9994
2 26474  67.9902  33.2245 0038661  32.3719 327.9791 15.09592160393300
ENVISAT                 
1 27386U 02009A   26071.34415574  .00000173  00000+0  69832-4 0  9998
2 27386  98.3732  24.8784 0001308  83.1981  83.6770 14.39038145259550
IDEFIX & ARIANE 42P R/B 
1 27422U 02021B   26071.29266030  .00000353  00000+0  15073-3 0  9995
2 27422  98.5870   9.8678 0011729 174.4851 185.6463 14.31028371244399
AQUA                    
1 27424U 02022A   26071.29392578  .00001314  00000+0  27191-3 0  9997
2 27424  98.4178  38.7063 0000573  90.7421  15.7037 14.61984497269118
CZ-4B R/B               
1 27432U 02024C   26071.12256656  .00000045  00000+0  45916-4 0  9992
2 27432  98.8834 124.5169 0050364  17.3131  36.9194 14.14548047229588
MIDORI II (ADEOS-II)    
1 27597U 02056A   26070.90384748  .00000364  00000+0  16071-3 0  9991
2 27597  98.7769  29.3966 0001508  40.3821 319.7472 14.29287029210612
H-2A R/B                
1 27601U 02056E   26070.86961987  .00000303  00000+0  12062-3 0  9997
2 27601  98.3205  31.1522 0070632 154.2148 261.2108 14.33762249214426
CZ-4B R/B               
1 28059U 03049C   26070.99669750  .00000431  00000+0  11035-3 0  9996
2 28059  98.6879  65.9919 0047333 223.7086 136.0358 14.55022487186931
CZ-2C R/B               
1 28222U 04012C   26071.16728482  .00060823  00000+0  61962-3 0  9992
2 28222  97.7224 136.6945 0012921 299.2495  60.7471 15.64833079204667
SL-16 R/B               
1 28353U 04021B   26070.86123671 -.00000265  00000+0 -11320-3 0  9991
2 28353  70.9996 227.9350 0004175   6.1397 353.9776 14.14597110123148
CZ-4B R/B               
1 28415U 04035C   26071.33051586  .00008521  00000+0  29995-3 0  9991
2 28415  97.3502 105.5415 0030709 321.7707  38.1355 15.29114318180318
CZ-2C R/B               
1 28480U 04046B   26071.29032510  .00000145  00000+0  68606-4 0  9993
2 28480  98.1981 346.1125 0140022 146.7804 214.2266 14.26993117108871
ARIANE 5 R/B            
1 28499U 04049H   26071.19264994  .00000974  00000+0  11379-3 0  9992
2 28499  98.2631 239.7433 0083763 343.7925  16.0612 14.85271369146164
CZ-2D R/B               
1 28738U 05024B   26071.01821709  .00043465  00000+0  52958-3 0  9996
2 28738  97.3600  86.2502 0005489  40.4701 319.6963 15.60374594140141
